STARLINK-36930          
1 68018U 26040D   26068.91668981 -.01155612  45413-3 -17080-2 0  9996
2 68018  97.2778  17.1118 0000828  90.8728 260.5472 16.05026979  2469
STARLINK-37067          
1 68086U 26042T   26068.75002315 -.01280197  53656-3 -20697-2 0  9991
2 68086  53.1606 194.9752 0000832  59.1903   5.7355 16.02834170  2063
