[{"OBJECT_NAME":"STARLINK-36930","OBJECT_ID":"2026-040D","EPOCH":"2026-03-09T22:00:01.999584","MEAN_MOTION":16.05026979,"ECCENTRICITY":8.283e-5,"INCLINATION":97.2778,"RA_OF_ASC_NODE":17.1118,"ARG_OF_PERICENTER":90.8728,"MEAN_ANOMALY":260.5472,"EPHEMERIS_TYPE":0,"CLASSIFICATION_TYPE":"U","NORAD_CAT_ID":68018,"ELEMENT_SET_NO":999,"REV_AT_EPOCH":246,"BSTAR":-0.0017080367,"MEAN_MOTION_DOT":-0.01155612,"MEAN_MOTION_DDOT":0.0004541326},{"OBJECT_NAME":"OBJECT T","OBJECT_ID":"2026-042T","EPOCH":"2026-03-09T18:00:02.000160","MEAN_MOTION":16.0283417,"ECCENTRICITY":8.328e-5,"INCLINATION":53.1606,"RA_OF_ASC_NODE":194.9752,"ARG_OF_PERICENTER":59.1903,"MEAN_ANOMALY":5.7355,"EPHEMERIS_TYPE":0,"CLASSIFICATION_TYPE":"U","NORAD_CAT_ID":68086,"ELEMENT_SET_NO":999,"REV_AT_EPOCH":206,"BSTAR":-0.0020696651,"MEAN_MOTION_DOT":-0.01280197,"MEAN_MOTION_DDOT":0.00053656391}]
